{
  "links" : {
    "next" : "https://api.nasa.gov/neo/rest/v1/feed?start_date=2004-12-09&end_date=2004-12-09&detailed=true&api_key=t0TVs3DtDT2H8Oy2Zy8m2eVrNsAVKAexjcZXUckd",
    "prev" : "https://api.nasa.gov/neo/rest/v1/feed?start_date=2004-12-07&end_date=2004-12-07&detailed=true&api_key=t0TVs3DtDT2H8Oy2Zy8m2eVrNsAVKAexjcZXUckd",
    "self" : "https://api.nasa.gov/neo/rest/v1/feed?start_date=2004-12-08&end_date=2004-12-08&detailed=true&api_key=t0TVs3DtDT2H8Oy2Zy8m2eVrNsAVKAexjcZXUckd"
  },
  "element_count" : 5,
  "near_earth_objects" : {
    "2004-12-08" : [ {
      "links" : {
        "self" : "https://api.nasa.gov/neo/rest/v1/neo/3567973?api_key=t0TVs3DtDT2H8Oy2Zy8m2eVrNsAVKAexjcZXUckd"
      },
      "neo_reference_id" : "3567973",
      "name" : "(2011 LT17)",
      "nasa_jpl_url" : "http://ssd.jpl.nasa.gov/sbdb.cgi?sstr=3567973",
      "absolute_magnitude_h" : 21.6,
      "estimated_diameter" : {
        "kilometers" : {
          "estimated_diameter_min" : 0.1272198785,
          "estimated_diameter_max" : 0.2844722965
        },
        "meters" : {
          "estimated_diameter_min" : 127.2198785394,
          "estimated_diameter_max" : 284.4722965033
        },
        "miles" : {
          "estimated_diameter_min" : 0.0790507431,
          "estimated_diameter_max" : 0.1767628354
        },
        "feet" : {
          "estimated_diameter_min" : 417.3880663071,
          "estimated_diameter_max" : 933.3080892598
        }
      },
      "is_potentially_hazardous_asteroid" : true,
      "close_approach_data" : [ {
        "close_approach_date" : "2004-12-08",
        "epoch_date_close_approach" : 1102492800000,
        "relative_velocity" : {
          "kilometers_per_second" : "11.3163024674",
          "kilometers_per_hour" : "40738.6888826591",
          "miles_per_hour" : "25313.4369893389"
        },
        "miss_distance" : {
          "astronomical" : "0.1863542601",
          "lunar" : "72.4918060303",
          "kilometers" : "27878202",
          "miles" : "17322712"
        },
        "orbiting_body" : "Earth"
      } ],
      "orbital_data" : {
        "orbit_id" : "21",
        "orbit_determination_date" : "2017-04-06 08:53:19",
        "orbit_uncertainty" : "2",
        "minimum_orbit_intersection" : ".00251047",
        "jupiter_tisserand_invariant" : "5.554",
        "epoch_osculation" : "2458000.5",
        "eccentricity" : ".2874280763549985",
        "semi_major_axis" : "1.099697548769544",
        "inclination" : "20.89704919754873",
        "ascending_node_longitude" : "83.47681389781685",
        "orbital_period" : "421.2193488056898",
        "perihelion_distance" : ".7836135977544068",
        "perihelion_argument" : "270.6143290704337",
        "aphelion_distance" : "1.415781499784681",
        "perihelion_time" : "2457902.169484916533",
        "mean_anomaly" : "84.03931474282277",
        "mean_motion" : ".8546615938245266",
        "equinox" : "J2000"
      }
    }, {
      "links" : {
        "self" : "https://api.nasa.gov/neo/rest/v1/neo/3741563?api_key=t0TVs3DtDT2H8Oy2Zy8m2eVrNsAVKAexjcZXUckd"
      },
      "neo_reference_id" : "3741563",
      "name" : "(2016 CO29)",
      "nasa_jpl_url" : "http://ssd.jpl.nasa.gov/sbdb.cgi?sstr=3741563",
      "absolute_magnitude_h" : 25.0,
      "estimated_diameter" : {
        "kilometers" : {
          "estimated_diameter_min" : 0.02658,
          "estimated_diameter_max" : 0.0594346868
        },
        "meters" : {
          "estimated_diameter_min" : 26.58,
          "estimated_diameter_max" : 59.4346868419
        },
        "miles" : {
          "estimated_diameter_min" : 0.0165160412,
          "estimated_diameter_max" : 0.0369309908
        },
        "feet" : {
          "estimated_diameter_min" : 87.2047272,
          "estimated_diameter_max" : 194.9956979785
        }
      },
      "is_potentially_hazardous_asteroid" : false,
      "close_approach_data" : [ {
        "close_approach_date" : "2004-12-08",
        "epoch_date_close_approach" : 1102492800000,
        "relative_velocity" : {
          "kilometers_per_second" : "7.4465041315",
          "kilometers_per_hour" : "26807.4148733965",
          "miles_per_hour" : "16657.0850917502"
        },
        "miss_distance" : {
          "astronomical" : "0.3216814626",
          "lunar" : "125.1340942383",
          "kilometers" : "48122864",
          "miles" : "29902160"
        },
        "orbiting_body" : "Earth"
      } ],
      "orbital_data" : {
        "orbit_id" : "10",
        "orbit_determination_date" : "2017-04-06 08:28:41",
        "orbit_uncertainty" : "6",
        "minimum_orbit_intersection" : ".02216",
        "jupiter_tisserand_invariant" : "5.778",
        "epoch_osculation" : "2458000.5",
        "eccentricity" : ".2437539634739511",
        "semi_major_axis" : "1.061220977433653",
        "inclination" : "2.864332535313078",
        "ascending_node_longitude" : "123.4403542222058",
        "orbital_period" : "399.3072230351586",
        "perihelion_distance" : ".8025441580624997",
        "perihelion_argument" : "114.427575496101",
        "aphelion_distance" : "1.319897796804806",
        "perihelion_time" : "2457906.275469721479",
        "mean_anomaly" : "84.94920438061035",
        "mean_motion" : ".9015614525167313",
        "equinox" : "J2000"
      }
    } ]
  }
}